CTC1_L_00251016-03
1 10062U 24047CL  26075.70032407  .00000000  00000+0  00000-0 0  9998
2 10062  75.0000 180.0000 0000000   0.0000   0.0000 15.48880433    17
CTC1_L_00251016-04
1 10063U 24946NZ  26075.70032407  .00000000  00000+0  00000-0 0  9997
2 10063  75.0000 180.0000 0000000   0.0000  90.0000 15.48880433    17
CTC1_L_00251017-01
1 10064U 23141ZZ  26075.70032407  .00000000  00000+0  00000-0 0  9994
2 10064  75.0000 192.0000 0000000   0.0000 192.0000 15.48880433    14
CTC1_L_00251017-02
1 10065U 22307GX  26075.70032407  .00000000  00000+0  00000-0 0  9998
2 10065  75.0000 192.0000 0000000   0.0000 282.0000 15.48880433    15
CTC1_L_00251017-03
1 10066U 26962E   26075.70032407  .00000000  00000+0  00000-0 0  9990
2 10066  75.0000 192.0000 0000000   0.0000  12.0000 15.48880433    17
CTC1_L_00251017-04
1 10067U 26098GQ  26075.70032407  .00000000  00000+0  00000-0 0  9991
2 10067  75.0000 192.0000 0000000   0.0000 102.0000 15.48880433    18
CTC1_L_00251018-01
1 10068U 24225NQ  26075.70032407  .00000000  00000+0  00000-0 0  9992
2 10068  75.0000 204.0000 0000000   0.0000 204.0000 15.48880433    16
CTC1_L_00251018-02
1 10069U 23817DD  26075.70032407  .00000000  00000+0  00000-0 0  9999
2 10069  75.0000 204.0000 0000000   0.0000 294.0000 15.48880433    16
CTC1_L_00251018-03
1 10070U 24961SK  26075.70032407  .00000000  00000+0  00000-0 0  9992
2 10070  75.0000 204.0000 0000000   0.0000  24.0000 15.48880433    19
CTC1_L_00251018-04
1 10071U 26343BB  26075.70032407  .00000000  00000+0  00000-0 0  9999
2 10071  75.0000 204.0000 0000000   0.0000 114.0000 15.48880433    10
CTC1_L_00251019-01
1 10072U 22779GK  26075.70032407  .00000000  00000+0  00000-0 0  9999
2 10072  75.0000 216.0000 0000000   0.0000 216.0000 15.48880433    17
CTC1_L_00251019-02
1 10073U 26744P   26075.70032407  .00000000  00000+0  00000-0 0  9996
2 10073  75.0000 216.0000 0000000   0.0000 306.0000 15.48880433    18
CTC1_L_00251019-03
1 10074U 25071GO  26075.70032407  .00000000  00000+0  00000-0 0  9999
2 10074  75.0000 216.0000 0000000   0.0000  36.0000 15.48880433    19
CTC1_L_00251019-04
1 10075U 25901HU  26075.70032407  .00000000  00000+0  00000-0 0  9992
2 10075  75.0000 216.0000 0000000   0.0000 126.0000 15.48880433    10
CTC1_L_00251020-01
1 10076U 23755XC  26075.70032407  .00000000  00000+0  00000-0 0  9998
2 10076  75.0000 228.0000 0000000   0.0000 228.0000 15.48880433    17
CTC1_L_00251020-02
1 10077U 25508AN  26075.70032407  .00000000  00000+0  00000-0 0  9997
2 10077  75.0000 228.0000 0000000   0.0000 318.0000 15.48880433    18
CTC1_L_00251020-03
1 10078U 22195KA  26075.70032407  .00000000  00000+0  00000-0 0  9997
2 10078  75.0000 228.0000 0000000   0.0000  48.0000 15.48880433    19
CTC1_L_00251020-04
1 10079U 25637PA  26075.70032407  .00000000  00000+0  00000-0 0  9992
2 10079  75.0000 228.0000 0000000   0.0000 138.0000 15.48880433    10
CTC1_L_00251021-01
1 10080U 24892BZ  26075.70032407  .00000000  00000+0  00000-0 0  9996
2 10080  75.0000 240.0000 0000000   0.0000 240.0000 15.48880433    10
CTC1_L_00251021-02
1 10081U 25267KX  26075.70032407  .00000000  00000+0  00000-0 0  9994
2 10081  75.0000 240.0000 0000000   0.0000 330.0000 15.48880433    11
CTC1_L_00251021-03
1 10082U 22705SP  26075.70032407  .00000000  00000+0  00000-0 0  9999
2 10082  75.0000 240.0000 0000000   0.0000  60.0000 15.48880433    12
CTC1_L_00251021-04
1 10083U 24565WI  26075.70032407  .00000000  00000+0  00000-0 0  9996
2 10083  75.0000 240.0000 0000000   0.0000 150.0000 15.48880433    13
CTC1_L_00251022-01
1 10084U 22378WM  26075.70032407  .00000000  00000+0  00000-0 0  9997
2 10084  75.0000 252.0000 0000000   0.0000 252.0000 15.48880433    10
CTC1_L_00251022-02
1 10085U 26821ME  26075.70032407  .00000000  00000+0  00000-0 0  9995
2 10085  75.0000 252.0000 0000000   0.0000 342.0000 15.48880433    11
CTC1_L_00251022-03
1 10086U 22267N   26075.70032407  .00000000  00000+0  00000-0 0  9996
2 10086  75.0000 252.0000 0000000   0.0000  72.0000 15.48880433    12
CTC1_L_00251022-04
1 10087U 22520CE  26075.70032407  .00000000  00000+0  00000-0 0  9999
2 10087  75.0000 252.0000 0000000   0.0000 162.0000 15.48880433    13
CTC1_L_00251023-01
1 10088U 23265FF  26075.70032407  .00000000  00000+0  00000-0 0  9997
2 10088  75.0000 264.0000 0000000   0.0000 264.0000 15.48880433    10
CTC1_L_00251023-02
1 10089U 25093NN  26075.70032407  .00000000  00000+0  00000-0 0  9999
2 10089  75.0000 264.0000 0000000   0.0000 354.0000 15.48880433    11
CTC1_L_00251023-03
1 10090U 24370ZB  26075.70032407  .00000000  00000+0  00000-0 0  9998
2 10090  75.0000 264.0000 0000000   0.0000  84.0000 15.48880433    13
CTC1_L_00251023-04
1 10091U 26613GO  26075.70032407  .00000000  00000+0  00000-0 0  9991
2 10091  75.0000 264.0000 0000000   0.0000 174.0000 15.48880433    14
CTC1_L_00251024-01
1 10092U 25229FJ  26075.70032407  .00000000  00000+0  00000-0 0  9994
2 10092  75.0000 276.0000 0000000   0.0000 276.0000 15.48880433    11
CTC1_L_00251024-02
1 10093U 25856QC  26075.70032407  .00000000  00000+0  00000-0 0  9991
2 10093  75.0000 276.0000 0000000   0.0000   6.0000 15.48880433    13
CTC1_L_00251024-03
1 10094U 26334EM  26075.70032407  .00000000  00000+0  00000-0 0  9994
2 10094  75.0000 276.0000 0000000   0.0000  96.0000 15.48880433    13
CTC1_L_00251024-04
1 10095U 22959XH  26075.70032407  .00000000  00000+0  00000-0 0  9994
2 10095  75.0000 276.0000 0000000   0.0000 186.0000 15.48880433    14
CTC1_L_00251025-01
1 10096U 26639HO  26075.70032407  .00000000  00000+0  00000-0 0  9994
2 10096  75.0000 288.0000 0000000   0.0000 288.0000 15.48880433    11
CTC1_L_00251025-02
1 10097U 23984YR  26075.70032407  .00000000  00000+0  00000-0 0  9995
2 10097  75.0000 288.0000 0000000   0.0000  18.0000 15.48880433    13
CTC1_L_00251025-03
1 10098U 23284CJ  26075.70032407  .00000000  00000+0  00000-0 0  9999
2 10098  75.0000 288.0000 0000000   0.0000 108.0000 15.48880433    14
CTC1_L_00251025-04
1 10099U 23821PB  26075.70032407  .00000000  00000+0  00000-0 0  9997
2 10099  75.0000 288.0000 0000000   0.0000 198.0000 15.48880433    14
CTC1_L_00251026-01
1 10100U 25783NK  26075.70032407  .00000000  00000+0  00000-0 0  9999
2 10100  75.0000 300.0000 0000000   0.0000 300.0000 15.48880433    17
CTC1_L_00251026-02
1 10101U 22897CI  26075.70032407  .00000000  00000+0  00000-0 0  9993
2 10101  75.0000 300.0000 0000000   0.0000  30.0000 15.48880433    18
CTC1_L_00251026-03
1 10102U 22281ZQ  26075.70032407  .00000000  00000+0  00000-0 0  9991
2 10102  75.0000 300.0000 0000000   0.0000 120.0000 15.48880433    19
CTC1_L_00251026-04
1 10103U 24506RO  26075.70032407  .00000000  00000+0  00000-0 0  9994
2 10103  75.0000 300.0000 0000000   0.0000 210.0000 15.48880433    10
CTC1_L_00251027-01
1 10104U 26114JE  26075.70032407  .00000000  00000+0  00000-0 0  9992
2 10104  75.0000 312.0000 0000000   0.0000 312.0000 15.48880433    17
CTC1_L_00251027-02
1 10105U 25350KJ  26075.70032407  .00000000  00000+0  00000-0 0  9994
2 10105  75.0000 312.0000 0000000   0.0000  42.0000 15.48880433    18
CTC1_L_00251027-03
1 10106U 23351MJ  26075.70032407  .00000000  00000+0  00000-0 0  9994
2 10106  75.0000 312.0000 0000000   0.0000 132.0000 15.48880433    19
CTC1_L_00251027-04
1 10107U 24554NN  26075.70032407  .00000000  00000+0  00000-0 0  9991
2 10107  75.0000 312.0000 0000000   0.0000 222.0000 15.48880433    10
CTC1_L_00251028-01
1 10108U 22804DC  26075.70032407  .00000000  00000+0  00000-0 0  9998
2 10108  75.0000 324.0000 0000000   0.0000 324.0000 15.48880433    17
CTC1_L_00251028-02
1 10109U 23329GM  26075.70032407  .00000000  00000+0  00000-0 0  9992
2 10109  75.0000 324.0000 0000000   0.0000  54.0000 15.48880433    18
CTC1_L_00251028-03
1 10110U 26257SK  26075.70032407  .00000000  00000+0  00000-0 0  9997
2 10110  75.0000 324.0000 0000000   0.0000 144.0000 15.48880433    10
CTC1_L_00251028-04
1 10111U 22051SA  26075.70032407  .00000000  00000+0  00000-0 0  9996
2 10111  75.0000 324.0000 0000000   0.0000 234.0000 15.48880433    11
CTC1_L_00251029-01
1 10112U 22806KE  26075.70032407  .00000000  00000+0  00000-0 0  9995
2 10112  75.0000 336.0000 0000000   0.0000 336.0000 15.48880433    18
CTC1_L_00251029-02
1 10113U 25832LU  26075.70032407  .00000000  00000+0  00000-0 0  9998
2 10113  75.0000 336.0000 0000000   0.0000  66.0000 15.48880433    19
CTC1_L_00251029-03
1 10114U 25192GP  26075.70032407  .00000000  00000+0  00000-0 0  9998
2 10114  75.0000 336.0000 0000000   0.0000 156.0000 15.48880433    10
CTC1_L_00251029-04
1 10115U 23807QV  26075.70032407  .00000000  00000+0  00000-0 0  9990
2 10115  75.0000 336.0000 0000000   0.0000 246.0000 15.48880433    11
CTC1_L_00251030-01
1 10116U 25830VW  26075.70032407  .00000000  00000+0  00000-0 0  9999
2 10116  75.0000 348.0000 0000000   0.0000 348.0000 15.48880433    18
CTC1_L_00251030-02
1 10117U 26430TQ  26075.70032407  .00000000  00000+0  00000-0 0  9997
2 10117  75.0000 348.0000 0000000   0.0000  78.0000 15.48880433    19
CTC1_L_00251030-03
1 10118U 22883WK  26075.70032407  .00000000  00000+0  00000-0 0  9996
2 10118  75.0000 348.0000 0000000   0.0000 168.0000 15.48880433    10
CTC1_L_00251030-04
1 10119U 22588RB  26075.70032407  .00000000  00000+0  00000-0 0  9999
2 10119  75.0000 348.0000 0000000   0.0000 258.0000 15.48880433    11
